$$SOE
2460147.500000000, A.D. 2023-Jul-22 00:00:00.0000, -2.368427596879368E+08, -4.712616089879276E+08, 9.791454294596447E+07,
2460154.500000000, A.D. 2023-Jul-29 00:00:00.0000, -2.276855454293918E+08, -4.741824442479412E+08, 9.520716334623207E+07,
2460161.500000000, A.D. 2023-Aug-05 00:00:00.0000, -2.184560361654561E+08, -4.769525915310924E+08, 9.246952824001881E+07,
2460168.500000000, A.D. 2023-Aug-12 00:00:00.0000, -2.091564335020505E+08, -4.795695696745740E+08, 8.970219718755850E+07,
2460175.500000000, A.D. 2023-Aug-19 00:00:00.0000, -1.997890179487820E+08, -4.820309163400505E+08, 8.690575536563705E+07,
2460182.500000000, A.D. 2023-Aug-26 00:00:00.0000, -1.903561499004372E+08, -4.843341907478742E+08, 8.408081402468547E+07,
2460189.500000000, A.D. 2023-Sep-02 00:00:00.0000, -1.808602705619207E+08, -4.864769765959101E+08, 8.122801092218293E+07,
2460196.500000000, A.D. 2023-Sep-09 00:00:00.0000, -1.713039027725073E+08, -4.884568852037982E+08, 7.834801072332166E+07,
2460203.500000000, A.D. 2023-Sep-16 00:00:00.0000, -1.616896515533554E+08, -4.902715589398306E+08, 7.544150534637693E+07,
2460210.500000000, A.D. 2023-Sep-23 00:00:00.0000, -1.520202039540858E+08, -4.919186746422678E+08, 7.250921423556525E+07,
2460217.500000000, A.D. 2023-Sep-30 00:00:00.0000, -1.422983285300428E+08, -4.933959458422506E+08, 6.955188468728398E+07,
2460224.500000000, A.D. 2023-Oct-07 00:00:00.0000, -1.325268767956195E+08, -4.947011243280039E+08, 6.657029239850943E+07,
2460231.500000000, A.D. 2023-Oct-14 00:00:00.0000, -1.227087856048019E+08, -4.958320043600038E+08, 6.356524186841618E+07,
2460238.500000000, A.D. 2023-Oct-21 00:00:00.0000, -1.128470772215422E+08, -4.967864279312478E+08, 6.053756648550676E+07,
2460245.500000000, A.D. 2023-Oct-28 00:00:00.0000, -1.029448584960523E+08, -4.975622888087099E+08, 5.748812861313750E+07,
2460252.500000000, A.D. 2023-Nov-04 00:00:00.0000, -9.300532038879327E+07, -4.981575361212538E+08, 5.441781972251147E+07,
2460259.500000000, A.D. 2023-Nov-11 00:00:00.0000, -8.303173765620752E+07, -4.985701780877736E+08, 5.132756050508600E+07,
2460266.500000000, A.D. 2023-Nov-18 00:00:00.0000, -7.302746847022569E+07, -4.987982859429396E+08, 4.821830093619868E+07,
2460273.500000000, A.D. 2023-Nov-25 00:00:00.0000, -6.299595389020106E+07, -4.988399980303878E+08, 4.509102028224617E+07,
2460280.500000000, A.D. 2023-Dec-02 00:00:00.0000, -5.294071715068021E+07, -4.986935240664555E+08, 4.194672704513603E+07,
2460287.500000000, A.D. 2023-Dec-09 00:00:00.0000, -4.286536267916483E+07, -4.983571496247721E+08, 3.878645882933837E+07,
2460294.500000000, A.D. 2023-Dec-16 00:00:00.0000, -3.277357454884434E+07, -4.978292408198306E+08, 3.561128210349157E+07,
2460301.500000000, A.D. 2023-Dec-23 00:00:00.0000, -2.266911401094298E+07, -4.971082484918818E+08, 3.242229187805521E+07,
2460308.500000000, A.D. 2023-Dec-30 00:00:00.0000, -1.255581744055373E+07, -4.961927108324271E+08, 2.922061150490481E+07,
2460315.500000000, A.D. 2024-Jan-06 00:00:00.0000, -2.437596462251162E+06, -4.950812567980576E+08, 2.600739256566909E+07,
2460322.500000000, A.D. 2024-Jan-13 00:00:00.0000, 7.681562923445486E+06, -4.937726121062293E+08, 2.278381440740967E+07,
2460329.500000000, A.D. 2024-Jan-20 00:00:00.0000, 1.779760344162846E+07, -4.922656047155197E+08, 1.955108346313044E+07,
2460336.500000000, A.D. 2024-Jan-27 00:00:00.0000, 2.790639984784597E+07, -4.905591691245734E+08, 1.631043259435493E+07,
2460343.500000000, A.D. 2024-Feb-03 00:00:00.0000, 3.800376201086282E+07, -4.886523504236305E+08, 1.306312041554707E+07,
2460350.500000000, A.D. 2024-Feb-10 00:00:00.0000, 4.808543805264734E+07, -4.865443083741637E+08, 9.810430549375772E+06,
2460357.500000000, A.D. 2024-Feb-17 00:00:00.0000, 5.814711768501817E+07, -4.842343214921788E+08, 6.553670799244881E+06,
2460364.500000000, A.D. 2024-Feb-24 00:00:00.0000, 6.818443577850051E+07, -4.817217911027560E+08, 3.294172235795915E+06,
2460371.500000000, A.D. 2024-Mar-02 00:00:00.0000, 7.819297619151315E+07, -4.790062453797965E+08, 3.328819121262431E+04,
2460378.500000000, A.D. 2024-Mar-09 00:00:00.0000, 8.816827599679463E+07, -4.760873434148780E+08, -3.227606856894433E+06,
2460385.500000000, A.D. 2024-Mar-16 00:00:00.0000, 9.810583049774253E+07, -4.729648790992833E+08, -6.487118532009274E+06,
2460392.500000000, A.D. 2024-Mar-23 00:00:00.0000, 1.080010989273237E+08, -4.696387836922106E+08, -9.743833834890008E+06,
2460399.500000000, A.D. 2024-Mar-30 00:00:00.0000, 1.178495085829009E+08, -4.661091270843449E+08, -1.299632224501082E+07,
2460406.500000000, A.D. 2024-Apr-06 00:00:00.0000, 1.276464576458822E+08, -4.623761211064724E+08, -1.624313694458383E+07,
2460413.500000000, A.D. 2024-Apr-13 00:00:00.0000, 1.373873202289248E+08, -4.584401240294853E+08, -1.948281642072111E+07,
2460420.500000000, A.D. 2024-Apr-20 00:00:00.0000, 1.470674526882842E+08, -4.543016435628423E+08, -2.271388613736996E+07,
2460427.500000000, A.D. 2024-Apr-27 00:00:00.0000, 1.566821996721015E+08, -4.499613388963432E+08, -2.593486018099526E+07,
2460434.500000000, A.D. 2024-May-04 00:00:00.0000, 1.662268999789937E+08, -4.454200224718453E+08, -2.914424294231138E+07,
2460441.500000000, A.D. 2024-May-11 00:00:00.0000, 1.756968924505246E+08, -4.406786615703532E+08, -3.234053086049086E+07,
2460448.500000000, A.D. 2024-May-18 00:00:00.0000, 1.850875219634646E+08, -4.357383796771612E+08, -3.552221423132429E+07,
2460455.500000000, A.D. 2024-May-25 00:00:00.0000, 1.943941455292752E+08, -4.306004576172248E+08, -3.868777907738709E+07,
2460462.500000000, A.D. 2024-Jun-01 00:00:00.0000, 2.036121385425022E+08, -4.252663345043458E+08, -4.183570908511204E+07,
2460469.500000000, A.D. 2024-Jun-08 00:00:00.0000, 2.127369014055643E+08, -4.197376085151012E+08, -4.496448762752575E+07,
2460476.500000000, A.D. 2024-Jun-15 00:00:00.0000, 2.217638669095510E+08, -4.140160369327351E+08, -4.807259985868284E+07,
2460483.500000000, A.D. 2024-Jun-22 00:00:00.0000, 2.306885073442949E+08, -4.081035342781440E+08, -5.115853468514949E+07,
2460490.500000000, A.D. 2024-Jun-29 00:00:00.0000, 2.395063391928497E+08, -4.020021703417240E+08, -5.422078656191784E+07,
2460497.500000000, A.D. 2024-Jul-06 00:00:00.0000, 2.482129280316015E+08, -3.957141705806088E+08, -5.725785755009186E+07,
2460504.500000000, A.D. 2024-Jul-13 00:00:00.0000, 2.568038955619071E+08, -3.892419160531617E+08, -6.026825957698011E+07,
2460511.500000000, A.D. 2024-Jul-20 00:00:00.0000, 2.652749267637912E+08, -3.825879417408699E+08, -6.325051661509092E+07,
2460518.500000000, A.D. 2024-Jul-27 00:00:00.0000, 2.736217764911919E+08, -3.757549342176197E+08, -6.620316679057235E+07,
2460525.500000000, A.D. 2024-Aug-03 00:00:00.0000, 2.818402757570897E+08, -3.687457290433310E+08, -6.912476446893339E+07,
2460532.500000000, A.D. 2024-Aug-10 00:00:00.0000, 2.899263378500050E+08, -3.615633078902664E+08, -7.201388232575704E+07,
2460539.500000000, A.D. 2024-Aug-17 00:00:00.0000, 2.978759643053233E+08, -3.542107953861200E+08, -7.486911339717758E+07,
2460546.500000000, A.D. 2024-Aug-24 00:00:00.0000, 3.056852507358816E+08, -3.466914557038765E+08, -7.768907310682367E+07,
2460553.500000000, A.D. 2024-Aug-31 00:00:00.0000, 3.133503926148652E+08, -3.390086889694424E+08, -8.047240127736585E+07,
2460560.500000000, A.D. 2024-Sep-07 00:00:00.0000, 3.208676913553911E+08, -3.311660273724050E+08, -8.321776414272244E+07,
2460567.500000000, A.D. 2024-Sep-14 00:00:00.0000, 3.282335607523721E+08, -3.231671299987943E+08, -8.592385628072974E+07,
2460574.500000000, A.D. 2024-Sep-21 00:00:00.0000, 3.354445317385419E+08, -3.150157759907297E+08, -8.858940224018773E+07,
2460581.500000000, A.D. 2024-Sep-28 00:00:00.0000, 3.424972549475336E+08, -3.067158592786087E+08, -9.121315807492708E+07,
2460588.500000000, A.D. 2024-Oct-05 00:00:00.0000, 3.493885047356327E+08, -2.982713849021891E+08, -9.379391311498921E+07,
2460595.500000000, A.D. 2024-Oct-12 00:00:00.0000, 3.561151842863307E+08, -2.896864639605218E+08, -9.633049169257739E+07,
2460602.500000000, A.D. 2024-Oct-19 00:00:00.0000, 3.626743300331896E+08, -2.809653074837565E+08, -9.882175467916065E+07,
2460609.500000000, A.D. 2024-Oct-26 00:00:00.0000, 3.690631153561832E+08, -2.721122200514470E+08, -1.012666008914293E+08,
2460616.500000000, A.D. 2024-Nov-02 00:00:00.0000, 3.752788537977080E+08, -2.631315933295608E+08, -1.036639683972719E+08,
2460623.500000000, A.D. 2024-Nov-09 00:00:00.0000, 3.813190018851829E+08, -2.540278995296081E+08, -1.060128357246212E+08,
2460630.500000000, A.D. 2024-Nov-16 00:00:00.0000, 3.871811615781907E+08, -2.448056848137118E+08, -1.083122229714699E+08,
2460637.500000000, A.D. 2024-Nov-23 00:00:00.0000, 3.928630823812910E+08, -2.354695627193416E+08, -1.105611928218292E+08,
2460644.500000000, A.D. 2024-Nov-30 00:00:00.0000, 3.983626633276490E+08, -2.260242076699107E+08, -1.127588514873299E+08,
2460651.500000000, A.D. 2024-Dec-07 00:00:00.0000, 4.036779552531547E+08, -2.164743481743711E+08, -1.149043495768207E+08,
2460658.500000000, A.D. 2024-Dec-14 00:00:00.0000, 4.088071626760162E+08, -2.068247585171313E+08, -1.169968827305276E+08,
2460665.500000000, A.D. 2024-Dec-21 00:00:00.0000, 4.137486429679583E+08, -1.970802502060690E+08, -1.190356919081076E+08,
2460672.500000000, A.D. 2024-Dec-28 00:00:00.0000, 4.185009047931864E+08, -1.872456661717997E+08, -1.210200637541991E+08,
2460679.500000000, A.D. 2025-Jan-04 00:00:00.0000, 4.230626084172561E+08, -1.773258753653675E+08, -1.229493310856111E+08,
2460686.500000000, A.D. 2025-Jan-11 00:00:00.0000, 4.274325660723386E+08, -1.673257661170629E+08, -1.248228731983612E+08,
2460693.500000000, A.D. 2025-Jan-18 00:00:00.0000, 4.316097414714493E+08, -1.572502391971583E+08, -1.266401159870724E+08,
2460700.500000000, A.D. 2025-Jan-25 00:00:00.0000, 4.355932487258363E+08, -1.471042010739442E+08, -1.284005319397795E+08,
2460707.500000000, A.D. 2025-Feb-01 00:00:00.0000, 4.393823508670330E+08, -1.368925574187545E+08, -1.301036400303774E+08,
$$EOE